SL-14 R/B               
1 20262U 89080C   26098.56208229  .00000285  00000+0  76214-4 0  9994
2 20262  82.5938 154.0176 1230942 116.5046 256.7502 12.50521459663889
DELTA 1 R/B             
1 20323U 89089B   26098.55598815  .00000293  00000+0  81104-4 0  9996
2 20323  97.0681 301.2388 0069829  29.2954 331.2131 14.50689100900066
ARIANE 40 R/B           
1 20443U 90005H   26098.55551722  .00000248  00000+0  92148-4 0  9995
2 20443  98.3023 158.3178 0011357 113.3434 246.8951 14.39891659897104
DELTA 2 R/B(1)          
1 20453U 90008B   26098.36411298  .00059894  00000+0  61244-3 0  9994
2 20453  35.6035 339.5213 0076079 178.2778 181.8232 15.60209887930769
COSMOS 2058             
1 20465U 90010A   26098.50566572  .00003422  00000+0  19965-3 0  9991
2 20465  82.4726  18.0519 0008512 223.8980 136.1575 15.11623469946746
SL-14 R/B               
1 20466U 90010B   26098.63293956  .00000510  00000+0  58801-4 0  9997
2 20466  82.5014 239.2560 0019379 197.2140 162.8421 14.83600586932920
SL-14 R/B               
1 20511U 90018B   26098.54443944  .00000412  00000+0  48648-4 0  9999
2 20511  82.5245 195.1929 0016061 359.0403   1.0777 14.82175936927007
HST                     
1 20580U 90037B   26098.56154676  .00006611  00000+0  21355-3 0  9991
2 20580  28.4725 196.1504 0002371  97.8130 262.2735 15.29986365777891
SL-16 R/B               
1 20625U 90046B   26098.67048048 -.00000125  00000+0 -39581-4 0  9995
2 20625  70.9994 234.9437 0016610 260.7990  99.1254 14.15019160852636
COSMOS 2084             
1 20663U 90055A   26098.67314073  .00002360  00000+0  17543-3 0  9995
2 20663  62.7901 233.2977 0012239 200.7225 159.3381 15.05841076940833
SL-6 R/B(2)             
1 20666U 90055D   26098.56405242  .00001188  00000+0  10009-3 0  9992
2 20666  62.7821 152.2474 0029725 353.5563   6.5149 15.03742808942680
SL-8 R/B                
1 20775U 90078B   26098.46897625  .00010113  00000+0  29912-3 0  9998
2 20775  82.9046 224.5079 0357007 273.4496  82.5959 14.89936143813736
SL-8 R/B                
1 21088U 91006B   26098.63376673  .00000106  00000+0  91397-4 0  9990
2 21088  82.9427 147.7813 0021253 313.8148 159.6424 13.77499658768196
OKEAN-3                 
1 21397U 91039A   26098.60018630  .00002290  00000+0  15927-3 0  9992
2 21397  82.5157 307.8582 0013289 225.7487 134.2650 15.04993326869537
