[
  {
    "OBJECT_NAME": "SL-14 R/B",
    "OBJECT_ID": "1989-080C",
    "EPOCH": "2026-04-08T13:29:23.909856",
    "MEAN_MOTION": 12.50521459,
    "ECCENTRICITY": 0.12309427,
    "INCLINATION": 82.5938,
    "RA_OF_ASC_NODE": 154.0176,
    "ARG_OF_PERICENTER": 116.5046,
    "MEAN_ANOMALY": 256.7502,
    "EPHEMERIS_TYPE": 0,
    "CLASSIFICATION_TYPE": "U",
    "NORAD_CAT_ID": 20262,
    "ELEMENT_SET_NO": 999,
    "REV_AT_EPOCH": 66388,
    "BSTAR": 7.6214256e-5,
    "MEAN_MOTION_DOT": 2.85e-6,
    "MEAN_MOTION_DDOT": 0
  },
  {
    "OBJECT_NAME": "DELTA 1 R/B",
    "OBJECT_ID": "1989-089B",
    "EPOCH": "2026-04-08T13:20:37.376160",
    "MEAN_MOTION": 14.506891,
    "ECCENTRICITY": 0.00698294,
    "INCLINATION": 97.0681,
    "RA_OF_ASC_NODE": 301.2388,
    "ARG_OF_PERICENTER": 29.2954,
    "MEAN_ANOMALY": 331.2131,
    "EPHEMERIS_TYPE": 0,
    "CLASSIFICATION_TYPE": "U",
    "NORAD_CAT_ID": 20323,
    "ELEMENT_SET_NO": 999,
    "REV_AT_EPOCH": 90006,
    "BSTAR": 8.1103972e-5,
    "MEAN_MOTION_DOT": 2.93e-6,
    "MEAN_MOTION_DDOT": 0
  },
  {
    "OBJECT_NAME": "ARIANE 40 R/B",
    "OBJECT_ID": "1990-005H",
    "EPOCH": "2026-04-08T13:19:56.687808",
    "MEAN_MOTION": 14.39891659,
    "ECCENTRICITY": 0.00113574,
    "INCLINATION": 98.3023,
    "RA_OF_ASC_NODE": 158.3178,
    "ARG_OF_PERICENTER": 113.3434,
    "MEAN_ANOMALY": 246.8951,
    "EPHEMERIS_TYPE": 0,
    "CLASSIFICATION_TYPE": "U",
    "NORAD_CAT_ID": 20443,
    "ELEMENT_SET_NO": 999,
    "REV_AT_EPOCH": 89710,
    "BSTAR": 9.2147947e-5,
    "MEAN_MOTION_DOT": 2.48e-6,
    "MEAN_MOTION_DDOT": 0
  },
  {
    "OBJECT_NAME": "DELTA 2 R/B(1)",
    "OBJECT_ID": "1990-008B",
    "EPOCH": "2026-04-08T08:44:19.361472",
    "MEAN_MOTION": 15.60209887,
    "ECCENTRICITY": 0.00760791,
    "INCLINATION": 35.6035,
    "RA_OF_ASC_NODE": 339.5213,
    "ARG_OF_PERICENTER": 178.2778,
    "MEAN_ANOMALY": 181.8232,
    "EPHEMERIS_TYPE": 0,
    "CLASSIFICATION_TYPE": "U",
    "NORAD_CAT_ID": 20453,
    "ELEMENT_SET_NO": 999,
    "REV_AT_EPOCH": 93076,
    "BSTAR": 0.00061243514,
    "MEAN_MOTION_DOT": 0.00059894,
    "MEAN_MOTION_DDOT": 0
  },
  {
    "OBJECT_NAME": "COSMOS 2058",
    "OBJECT_ID": "1990-010A",
    "EPOCH": "2026-04-08T12:08:09.518208",
    "MEAN_MOTION": 15.11623469,
    "ECCENTRICITY": 0.00085125,
    "INCLINATION": 82.4726,
    "RA_OF_ASC_NODE": 18.0519,
    "ARG_OF_PERICENTER": 223.898,
    "MEAN_ANOMALY": 136.1575,
    "EPHEMERIS_TYPE": 0,
    "CLASSIFICATION_TYPE": "U",
    "NORAD_CAT_ID": 20465,
    "ELEMENT_SET_NO": 999,
    "REV_AT_EPOCH": 94674,
    "BSTAR": 0.00019965348,
    "MEAN_MOTION_DOT": 3.422e-5,
    "MEAN_MOTION_DDOT": 0
  },
  {
    "OBJECT_NAME": "SL-14 R/B",
    "OBJECT_ID": "1990-010B",
    "EPOCH": "2026-04-08T15:11:25.977984",
    "MEAN_MOTION": 14.83600586,
    "ECCENTRICITY": 0.00193792,
    "INCLINATION": 82.5014,
    "RA_OF_ASC_NODE": 239.256,
    "ARG_OF_PERICENTER": 197.214,
    "MEAN_ANOMALY": 162.8421,
    "EPHEMERIS_TYPE": 0,
    "CLASSIFICATION_TYPE": "U",
    "NORAD_CAT_ID": 20466,
    "ELEMENT_SET_NO": 999,
    "REV_AT_EPOCH": 93292,
    "BSTAR": 5.8800592e-5,
    "MEAN_MOTION_DOT": 5.1e-6,
    "MEAN_MOTION_DDOT": 0
  },
  {
    "OBJECT_NAME": "SL-14 R/B",
    "OBJECT_ID": "1990-018B",
    "EPOCH": "2026-04-08T13:03:59.567616",
    "MEAN_MOTION": 14.82175936,
    "ECCENTRICITY": 0.00160619,
    "INCLINATION": 82.5245,
    "RA_OF_ASC_NODE": 195.1929,
    "ARG_OF_PERICENTER": 359.0403,
    "MEAN_ANOMALY": 1.0777,
    "EPHEMERIS_TYPE": 0,
    "CLASSIFICATION_TYPE": "U",
    "NORAD_CAT_ID": 20511,
    "ELEMENT_SET_NO": 999,
    "REV_AT_EPOCH": 92700,
    "BSTAR": 4.8647775e-5,
    "MEAN_MOTION_DOT": 4.12e-6,
    "MEAN_MOTION_DDOT": 0
  },
  {
    "OBJECT_NAME": "HST",
    "OBJECT_ID": "1990-037B",
    "EPOCH": "2026-04-08T13:28:37.640064",
    "MEAN_MOTION": 15.29986365,
    "ECCENTRICITY": 0.00023714,
    "INCLINATION": 28.4725,
    "RA_OF_ASC_NODE": 196.1504,
    "ARG_OF_PERICENTER": 97.813,
    "MEAN_ANOMALY": 262.2735,
    "EPHEMERIS_TYPE": 0,
    "CLASSIFICATION_TYPE": "U",
    "NORAD_CAT_ID": 20580,
    "ELEMENT_SET_NO": 999,
    "REV_AT_EPOCH": 77789,
    "BSTAR": 0.00021354717,
    "MEAN_MOTION_DOT": 6.611e-5,
    "MEAN_MOTION_DDOT": 0
  },
  {
    "OBJECT_NAME": "SL-16 R/B",
    "OBJECT_ID": "1990-046B",
    "EPOCH": "2026-04-08T16:05:29.513472",
    "MEAN_MOTION": 14.1501916,
    "ECCENTRICITY": 0.00166104,
    "INCLINATION": 70.9994,
    "RA_OF_ASC_NODE": 234.9437,
    "ARG_OF_PERICENTER": 260.799,
    "MEAN_ANOMALY": 99.1254,
    "EPHEMERIS_TYPE": 0,
    "CLASSIFICATION_TYPE": "U",
    "NORAD_CAT_ID": 20625,
    "ELEMENT_SET_NO": 999,
    "REV_AT_EPOCH": 85263,
    "BSTAR": -3.958117e-5,
    "MEAN_MOTION_DOT": -1.25e-6,
    "MEAN_MOTION_DDOT": 0
  },
  {
    "OBJECT_NAME": "COSMOS 2084",
    "OBJECT_ID": "1990-055A",
    "EPOCH": "2026-04-08T16:09:19.359072",
    "MEAN_MOTION": 15.05841076,
    "ECCENTRICITY": 0.00122397,
    "INCLINATION": 62.7901,
    "RA_OF_ASC_NODE": 233.2977,
    "ARG_OF_PERICENTER": 200.7225,
    "MEAN_ANOMALY": 159.3381,
    "EPHEMERIS_TYPE": 0,
    "CLASSIFICATION_TYPE": "U",
    "NORAD_CAT_ID": 20663,
    "ELEMENT_SET_NO": 999,
    "REV_AT_EPOCH": 94083,
    "BSTAR": 0.00017543006,
    "MEAN_MOTION_DOT": 2.36e-5,
    "MEAN_MOTION_DDOT": 0
  },
  {
    "OBJECT_NAME": "SL-6 R/B(2)",
    "OBJECT_ID": "1990-055D",
    "EPOCH": "2026-04-08T13:32:14.129088",
    "MEAN_MOTION": 15.03742808,
    "ECCENTRICITY": 0.00297259,
    "INCLINATION": 62.7821,
    "RA_OF_ASC_NODE": 152.2474,
    "ARG_OF_PERICENTER": 353.5563,
    "MEAN_ANOMALY": 6.5149,
    "EPHEMERIS_TYPE": 0,
    "CLASSIFICATION_TYPE": "U",
    "NORAD_CAT_ID": 20666,
    "ELEMENT_SET_NO": 999,
    "REV_AT_EPOCH": 94268,
    "BSTAR": 0.00010008882,
    "MEAN_MOTION_DOT": 1.188e-5,
    "MEAN_MOTION_DDOT": 0
  },
  {
    "OBJECT_NAME": "SL-8 R/B",
    "OBJECT_ID": "1990-078B",
    "EPOCH": "2026-04-08T11:15:19.548000",
    "MEAN_MOTION": 14.89936143,
    "ECCENTRICITY": 0.03570072,
    "INCLINATION": 82.9046,
    "RA_OF_ASC_NODE": 224.5079,
    "ARG_OF_PERICENTER": 273.4496,
    "MEAN_ANOMALY": 82.5959,
    "EPHEMERIS_TYPE": 0,
    "CLASSIFICATION_TYPE": "U",
    "NORAD_CAT_ID": 20775,
    "ELEMENT_SET_NO": 999,
    "REV_AT_EPOCH": 81373,
    "BSTAR": 0.00029911583,
    "MEAN_MOTION_DOT": 0.00010113,
    "MEAN_MOTION_DDOT": 0
  },
  {
    "OBJECT_NAME": "SL-8 R/B",
    "OBJECT_ID": "1991-006B",
    "EPOCH": "2026-04-08T15:12:37.445472",
    "MEAN_MOTION": 13.77499658,
    "ECCENTRICITY": 0.00212539,
    "INCLINATION": 82.9427,
    "RA_OF_ASC_NODE": 147.7813,
    "ARG_OF_PERICENTER": 313.8148,
    "MEAN_ANOMALY": 159.6424,
    "EPHEMERIS_TYPE": 0,
    "CLASSIFICATION_TYPE": "U",
    "NORAD_CAT_ID": 21088,
    "ELEMENT_SET_NO": 999,
    "REV_AT_EPOCH": 76819,
    "BSTAR": 9.1397286e-5,
    "MEAN_MOTION_DOT": 1.06e-6,
    "MEAN_MOTION_DDOT": 0
  },
  {
    "OBJECT_NAME": "OKEAN-3",
    "OBJECT_ID": "1991-039A",
    "EPOCH": "2026-04-08T14:24:16.096320",
    "MEAN_MOTION": 15.04993326,
    "ECCENTRICITY": 0.00132898,
    "INCLINATION": 82.5157,
    "RA_OF_ASC_NODE": 307.8582,
    "ARG_OF_PERICENTER": 225.7487,
    "MEAN_ANOMALY": 134.265,
    "EPHEMERIS_TYPE": 0,
    "CLASSIFICATION_TYPE": "U",
    "NORAD_CAT_ID": 21397,
    "ELEMENT_SET_NO": 999,
    "REV_AT_EPOCH": 86953,
    "BSTAR": 0.00015927001,
    "MEAN_MOTION_DOT": 2.29e-5,
    "MEAN_MOTION_DDOT": 0
  }
]
